{
  "type": "FeatureCollection",
  "features": [
    {
      "type": "Feature",
      "properties": {
        "norad_id": 41556,
        "name": "ZIYUAN 3-2 (ZY 3-2)",
        "group": "resource",
        "lat": 69.85321444443173,
        "lon": -101.69559530102529,
        "alt_km": 502.4723210091315,
        "timestamp": "2025-12-09T07:41:32.860214+00:00",
        "meta_object_name": "ZIYUAN 3-2 (ZY 3-2)",
        "meta_object_id": "2016-033A",
        "meta_epoch": "2025-12-08T23:19:22.242144",
        "meta_mean_motion": 15.21416201,
        "meta_eccentricity": 0.0012422,
        "meta_inclination": 97.4043,
        "meta_ra_of_asc_node": 57.2007,
        "meta_arg_of_pericenter": 263.8354,
        "meta_mean_anomaly": 96.1467,
        "meta_ephemeris_type": 0,
        "meta_classification_type": "U",
        "meta_norad_cat_id": 41556,
        "meta_element_set_no": 999,
        "meta_rev_at_epoch": 52906,
        "meta_bstar": 0.00041560333,
        "meta_mean_motion_dot": 9.282e-05,
        "meta_mean_motion_ddot": 0,
        "tle_line1": "1 41556U 16033A   25342.97178521  .00009282  00000+0  41560-3 0  9999",
        "tle_line2": "2 41556  97.4043  57.2007 0012422 263.8354  96.1467 15.21416201529061"
      },
      "geometry": {
        "type": "Point",
        "coordinates": [
          -101.69559530102529,
          69.85321444443173
        ]
      }
    },
    {
      "type": "Feature",
      "properties": {
        "norad_id": 41599,
        "name": "CARTOSAT-2C",
        "group": "resource",
        "lat": 77.26861655417098,
        "lon": 5.065255003519213,
        "alt_km": 493.405864836398,
        "timestamp": "2025-12-09T07:41:32.860239+00:00",
        "meta_object_name": "CARTOSAT-2C",
        "meta_object_id": "2016-040A",
        "meta_epoch": "2025-12-08T23:26:23.728992",
        "meta_mean_motion": 15.19234516,
        "meta_eccentricity": 0.00109077,
        "meta_inclination": 97.4767,
        "meta_ra_of_asc_node": 40.2651,
        "meta_arg_of_pericenter": 76.2074,
        "meta_mean_anomaly": 284.0374,
        "meta_ephemeris_type": 0,
        "meta_classification_type": "U",
        "meta_norad_cat_id": 41599,
        "meta_element_set_no": 999,
        "meta_rev_at_epoch": 52483,
        "meta_bstar": 0.00025781787,
        "meta_mean_motion_dot": 5.371e-05,
        "meta_mean_motion_ddot": 0,
        "tle_line1": "1 41599U 16040A   25342.97666353  .00005371  00000+0  25782-3 0  9992",
        "tle_line2": "2 41599  97.4767  40.2651 0010907  76.2074 284.0374 15.19234516524838"
      },
      "geometry": {
        "type": "Point",
        "coordinates": [
          5.065255003519213,
          77.26861655417098
        ]
      }
    },
    {
      "type": "Feature",
      "properties": {
        "norad_id": 41601,
        "name": "SKYSAT-C1",
        "group": "resource",
        "lat": -28.01668869364379,
        "lon": 24.265944717523176,
        "alt_km": 473.1328179000584,
        "timestamp": "2025-12-09T07:41:32.860251+00:00",
        "meta_object_name": "SKYSAT-C1",
        "meta_object_id": "2016-040C",
        "meta_epoch": "2025-12-08T16:08:39.612480",
        "meta_mean_motion": 15.32476434,
        "meta_eccentricity": 0.00028228,
        "meta_inclination": 96.9825,
        "meta_ra_of_asc_node": 19.9156,
        "meta_arg_of_pericenter": 26.9507,
        "meta_mean_anomaly": 333.1882,
        "meta_ephemeris_type": 0,
        "meta_classification_type": "U",
        "meta_norad_cat_id": 41601,
        "meta_element_set_no": 999,
        "meta_rev_at_epoch": 52865,
        "meta_bstar": 0.00038708925,
        "meta_mean_motion_dot": 0.00012074,
        "meta_mean_motion_ddot": 0,
        "tle_line1": "1 41601U 16040C   25342.67268070  .00012074  00000+0  38709-3 0  9998",
        "tle_line2": "2 41601  96.9825  19.9156 0002822  26.9507 333.1882 15.32476434528650"
      },
      "geometry": {
        "type": "Point",
        "coordinates": [
          24.265944717523176,
          -28.01668869364379
        ]
      }
    },
    {
      "type": "Feature",
      "properties": {
        "norad_id": 41603,
        "name": "LAPAN-A3",
        "group": "resource",
        "lat": 51.27036846384392,
        "lon": 169.9970486195992,
        "alt_km": 472.01491481505036,
        "timestamp": "2025-12-09T07:41:32.860262+00:00",
        "meta_object_name": "LAPAN-A3",
        "meta_object_id": "2016-040E",
        "meta_epoch": "2025-12-08T23:17:41.109216",
        "meta_mean_motion": 15.31507331,
        "meta_eccentricity": 0.0010116,
        "meta_inclination": 97.143,
        "meta_ra_of_asc_node": 340.6637,
        "meta_arg_of_pericenter": 348.256,
        "meta_mean_anomaly": 11.8445,
        "meta_ephemeris_type": 0,
        "meta_classification_type": "U",
        "meta_norad_cat_id": 41603,
        "meta_element_set_no": 999,
        "meta_rev_at_epoch": 52568,
        "meta_bstar": 0.00022299765,
        "meta_mean_motion_dot": 6.721e-05,
        "meta_mean_motion_ddot": 0,
        "tle_line1": "1 41603U 16040E   25342.97061469  .00006721  00000+0  22300-3 0  9998",
        "tle_line2": "2 41603  97.1430 340.6637 0010116 348.2560  11.8445 15.31507331525684"
      },
      "geometry": {
        "type": "Point",
        "coordinates": [
          169.9970486195992,
          51.27036846384392
        ]
      }
    },
    {
      "type": "Feature",
      "properties": {
        "norad_id": 41604,
        "name": "BIROS",
        "group": "resource",
        "lat": -34.54973194714849,
        "lon": 19.520772752572046,
        "alt_km": 315.8159921054412,
        "timestamp": "2025-12-09T07:41:32.860272+00:00",
        "meta_object_name": "BIROS",
        "meta_object_id": "2016-040F",
        "meta_epoch": "2025-12-08T21:15:11.858688",
        "meta_mean_motion": 15.88045224,
        "meta_eccentricity": 0.00031967,
        "meta_inclination": 97.069,
        "meta_ra_of_asc_node": 14.1674,
        "meta_arg_of_pericenter": 156.4538,
        "meta_mean_anomaly": 203.6882,
        "meta_ephemeris_type": 0,
        "meta_classification_type": "U",
        "meta_norad_cat_id": 41604,
        "meta_element_set_no": 999,
        "meta_rev_at_epoch": 52811,
        "meta_bstar": 0.00068807109,
        "meta_mean_motion_dot": 0.00189518,
        "meta_mean_motion_ddot": 0,
        "tle_line1": "1 41604U 16040F   25342.88555392  .00189518  00000+0  68807-3 0  9990",
        "tle_line2": "2 41604  97.0690  14.1674 0003196 156.4538 203.6882 15.88045224528117"
      },
      "geometry": {
        "type": "Point",
        "coordinates": [
          19.520772752572046,
          -34.54973194714849
        ]
      }
    },
    {
      "type": "Feature",
      "properties": {
        "norad_id": 41727,
        "name": "GAOFEN-3",
        "group": "resource",
        "lat": -74.77646149102932,
        "lon": 21.860695582020647,
        "alt_km": 759.3452786932603,
        "timestamp": "2025-12-09T07:41:32.860282+00:00",
        "meta_object_name": "GAOFEN-3",
        "meta_object_id": "2016-049A",
        "meta_epoch": "2025-12-08T23:43:29.562240",
        "meta_mean_motion": 14.42211959,
        "meta_eccentricity": 0.00014877,
        "meta_inclination": 98.4035,
        "meta_ra_of_asc_node": 348.6316,
        "meta_arg_of_pericenter": 66.2011,
        "meta_mean_anomaly": 293.9334,
        "meta_ephemeris_type": 0,
        "meta_classification_type": "U",
        "meta_norad_cat_id": 41727,
        "meta_element_set_no": 999,
        "meta_rev_at_epoch": 49123,
        "meta_bstar": 1.3409237e-05,
        "meta_mean_motion_dot": 1e-08,
        "meta_mean_motion_ddot": 0,
        "tle_line1": "1 41727U 16049A   25342.98853660  .00000001  00000+0  13409-4 0  9993",
        "tle_line2": "2 41727  98.4035 348.6316 0001487  66.2011 293.9334 14.42211959491239"
      },
      "geometry": {
        "type": "Point",
        "coordinates": [
          21.860695582020647,
          -74.77646149102932
        ]
      }
    },
    {
      "type": "Feature",
      "properties": {
        "norad_id": 41771,
        "name": "SKYSAT-C4",
        "group": "resource",
        "lat": 30.888579105732862,
        "lon": -167.14847995146948,
        "alt_km": 437.63713761622967,
        "timestamp": "2025-12-09T07:41:32.860293+00:00",
        "meta_object_name": "SKYSAT-C4",
        "meta_object_id": "2016-058B",
        "meta_epoch": "2025-12-08T15:28:33.367296",
        "meta_mean_motion": 15.42072055,
        "meta_eccentricity": 0.0001122,
        "meta_inclination": 96.9373,
        "meta_ra_of_asc_node": 8.0317,
        "meta_arg_of_pericenter": 131.9874,
        "meta_mean_anomaly": 228.1469,
        "meta_ephemeris_type": 0,
        "meta_classification_type": "U",
        "meta_norad_cat_id": 41771,
        "meta_element_set_no": 999,
        "meta_rev_at_epoch": 51604,
        "meta_bstar": 0.00043998,
        "meta_mean_motion_dot": 0.00018741,
        "meta_mean_motion_ddot": 0,
        "tle_line1": "1 41771U 16058B   25342.64483064  .00018741  00000+0  43998-3 0  9997",
        "tle_line2": "2 41771  96.9373   8.0317 0001122 131.9874 228.1469 15.42072055516046"
      },
      "geometry": {
        "type": "Point",
        "coordinates": [
          -167.14847995146948,
          30.888579105732862
        ]
      }
    }
  ]
}